start=new Date('2022-06-05T00:00:00.000Z').valueOf();
sats=[{"MEAN_ELEMENT_THEORY":"SGP4","ECCENTRICITY":"0.00018520","INCLINATION":"53.2209","ARG_OF_PERICENTER":"62.5955","LAUNCH_DATE":"2022-02-21","BSTAR":"0.00010900000000","PERIAPSIS":"538.452","SEMIMAJOR_AXIS":"6917.869","CENTER_NAME":"EARTH","DECAY_DATE":null,"EPOCH":"2022-06-04T13:48:36.831456","TLE_LINE1":"1 51735U 22016X   22155.57542629  .00001447  00000-0  10900-3 0  9996","REF_FRAME":"TEME","GP_ID":"205361431","OBJECT_ID":"2022-016X","MEAN_ANOMALY":"297.5225","CLASSIFICATION_TYPE":"U","APOAPSIS":"541.015","REV_AT_EPOCH":"1723","ELEMENT_SET_NO":"999","MEAN_MOTION_DDOT":"0.0000000000000","PERIOD":"95.437","MEAN_MOTION":"15.08843885","OBJECT_NAME":"STARLINK-3517","EPHEMERIS_TYPE":"0","MEAN_MOTION_DOT":"0.00001447","TIME_SYSTEM":"UTC","NORAD_CAT_ID":"51735","SITE":"AFETR","RCS_SIZE":"LARGE","COUNTRY_CODE":"US","FILE":"3481202","TLE_LINE2":"2 51735  53.2209   7.7464 0001852  62.5955 297.5225 15.08843885 17235","OBJECT_TYPE":"PAYLOAD","RA_OF_ASC_NODE":"7.7464"},{"TLE_LINE1":"1 51736U 22016Y   22155.29575467  .00000138  00000-0  26808-4 0  9993","CENTER_NAME":"EARTH","SEMIMAJOR_AXIS":"6917.904","EPOCH":"2022-06-04T07:05:53.203488","DECAY_DATE":null,"BSTAR":"0.00002680800000","LAUNCH_DATE":"2022-02-21","PERIAPSIS":"538.538","MEAN_ELEMENT_THEORY":"SGP4","ARG_OF_PERICENTER":"56.2084","INCLINATION":"53.2146","ECCENTRICITY":"0.00017790","CLASSIFICATION_TYPE":"U","MEAN_ANOMALY":"303.9077","APOAPSIS":"541.000","OBJECT_ID":"2022-016Y","REF_FRAME":"TEME","GP_ID":"205352487","TIME_SYSTEM":"UTC","NORAD_CAT_ID":"51736","MEAN_MOTION_DOT":"0.00000138","EPHEMERIS_TYPE":"0","PERIOD":"95.438","MEAN_MOTION":"15.08832337","MEAN_MOTION_DDOT":"0.0000000000000","OBJECT_NAME":"STARLINK-3447","ELEMENT_SET_NO":"999","REV_AT_EPOCH":"1607","RA_OF_ASC_NODE":"9.0124","TLE_LINE2":"2 51736  53.2146   9.0124 0001779  56.2084 303.9077 15.08832337 16073","OBJECT_TYPE":"PAYLOAD","FILE":"3480894","COUNTRY_CODE":"US","RCS_SIZE":"LARGE","SITE":"AFETR"},{"RA_OF_ASC_NODE":"8.9647","TLE_LINE2":"2 51737  53.2152   8.9647 0001759  62.3590 297.7580 15.08845113 16072","OBJECT_TYPE":"PAYLOAD","COUNTRY_CODE":"US","FILE":"3480894","RCS_SIZE":"LARGE","SITE":"AFETR","NORAD_CAT_ID":"51737","TIME_SYSTEM":"UTC","MEAN_MOTION_DOT":"0.00000383","EPHEMERIS_TYPE":"0","MEAN_MOTION":"15.08845113","PERIOD":"95.437","MEAN_MOTION_DDOT":"0.0000000000000","OBJECT_NAME":"STARLINK-3509","ELEMENT_SET_NO":"999","REV_AT_EPOCH":"1607","APOAPSIS":"540.947","CLASSIFICATION_TYPE":"U","MEAN_ANOMALY":"297.7580","OBJECT_ID":"2022-016Z","GP_ID":"205352237","REF_FRAME":"TEME","TLE_LINE1":"1 51737U 22016Z   22155.30678700  .00000383  00000-0  42183-4 0  9996","EPOCH":"2022-06-04T07:21:46.396800","DECAY_DATE":null,"CENTER_NAME":"EARTH","SEMIMAJOR_AXIS":"6917.865","PERIAPSIS":"538.513","BSTAR":"0.00004218300000","LAUNCH_DATE":"2022-02-21","INCLINATION":"53.2152","ARG_OF_PERICENTER":"62.3590","ECCENTRICITY":"0.00017590","MEAN_ELEMENT_THEORY":"SGP4"},{"GP_ID":"205353489","REF_FRAME":"TEME","APOAPSIS":"541.026","MEAN_ANOMALY":"307.2982","CLASSIFICATION_TYPE":"U","OBJECT_ID":"2022-016AA","PERIAPSIS":"538.487","LAUNCH_DATE":"2022-02-21","BSTAR":"-0.00004018200000","ECCENTRICITY":"0.00018350","ARG_OF_PERICENTER":"52.8177","INCLINATION":"53.2164","MEAN_ELEMENT_THEORY":"SGP4","TLE_LINE1":"1 51738U 22016AA  22155.28839087 -.00000928  00000-0 -40182-4 0  9995","DECAY_DATE":null,"EPOCH":"2022-06-04T06:55:16.971168","SEMIMAJOR_AXIS":"6917.892","CENTER_NAME":"EARTH","RCS_SIZE":"LARGE","SITE":"AFETR","RA_OF_ASC_NODE":"9.0447","COUNTRY_CODE":"US","FILE":"3480894","OBJECT_TYPE":"PAYLOAD","TLE_LINE2":"2 51738  53.2164   9.0447 0001835  52.8177 307.2982 15.08836309 16076","PERIOD":"95.438","MEAN_MOTION_DDOT":"0.0000000000000","OBJECT_NAME":"STARLINK-3515","MEAN_MOTION":"15.08836309","REV_AT_EPOCH":"1607","ELEMENT_SET_NO":"999","NORAD_CAT_ID":"51738","TIME_SYSTEM":"UTC","EPHEMERIS_TYPE":"0","MEAN_MOTION_DOT":"-0.00000928"},{"ARG_OF_PERICENTER":"59.2924","INCLINATION":"53.2146","ECCENTRICITY":"0.00019420","MEAN_ELEMENT_THEORY":"SGP4","PERIAPSIS":"538.409","BSTAR":"0.00003759000000","LAUNCH_DATE":"2022-02-21","EPOCH":"2022-06-04T07:11:10.651776","DECAY_DATE":null,"CENTER_NAME":"EARTH","SEMIMAJOR_AXIS":"6917.888","TLE_LINE1":"1 51739U 22016AB  22155.29942884  .00000310  00000-0  37590-4 0  9999","GP_ID":"205353239","REF_FRAME":"TEME","OBJECT_ID":"2022-016AB","APOAPSIS":"541.096","CLASSIFICATION_TYPE":"U","MEAN_ANOMALY":"300.8259","ELEMENT_SET_NO":"999","REV_AT_EPOCH":"1607","MEAN_MOTION_DDOT":"0.0000000000000","PERIOD":"95.438","OBJECT_NAME":"STARLINK-3516","MEAN_MOTION":"15.08837589","MEAN_MOTION_DOT":"0.00000310","EPHEMERIS_TYPE":"0","NORAD_CAT_ID":"51739","TIME_SYSTEM":"UTC","SITE":"AFETR","RCS_SIZE":"LARGE","TLE_LINE2":"2 51739  53.2146   8.9945 0001942  59.2924 300.8259 15.08837589 16075","OBJECT_TYPE":"PAYLOAD","COUNTRY_CODE":"US","FILE":"3480894","RA_OF_ASC_NODE":"8.9945"},{"OBJECT_NAME":"STARLINK-3500","PERIOD":"95.438","MEAN_MOTION_DDOT":"0.0000000000000","MEAN_MOTION":"15.08837569","REV_AT_EPOCH":"1603","ELEMENT_SET_NO":"999","TIME_SYSTEM":"UTC","NORAD_CAT_ID":"51740","EPHEMERIS_TYPE":"0","MEAN_MOTION_DOT":"-0.00001069","RCS_SIZE":"LARGE","SITE":"AFETR","RA_OF_ASC_NODE":"10.2663","COUNTRY_CODE":"US","FILE":"3480894","TLE_LINE2":"2 51740  53.2141  10.2663 0001747  61.5669 298.5499 15.08837569 16033","OBJECT_TYPE":"PAYLOAD","LAUNCH_DATE":"2022-02-21","BSTAR":"-0.00004910100000","PERIAPSIS":"538.544","MEAN_ELEMENT_THEORY":"SGP4","ECCENTRICITY":"0.00017470","INCLINATION":"53.2141","ARG_OF_PERICENTER":"61.5669","TLE_LINE1":"1 51740U 22016AC  22155.01607084 -.00001069  00000-0 -49101-4 0  9996","SEMIMAJOR_AXIS":"6917.888","CENTER_NAME":"EARTH","DECAY_DATE":null,"EPOCH":"2022-06-04T00:23:08.520576","REF_FRAME":"TEME","GP_ID":"205351987","MEAN_ANOMALY":"298.5499","CLASSIFICATION_TYPE":"U","APOAPSIS":"540.961","OBJECT_ID":"2022-016AC"},{"OBJECT_ID":"2022-016AD","CLASSIFICATION_TYPE":"U","MEAN_ANOMALY":"304.8156","APOAPSIS":"541.023","REF_FRAME":"TEME","GP_ID":"205352738","CENTER_NAME":"EARTH","SEMIMAJOR_AXIS":"6917.892","EPOCH":"2022-06-04T13:22:07.931136","DECAY_DATE":null,"TLE_LINE1":"1 51741U 22016AD  22155.55703624  .00002110  00000-0  15066-3 0  9991","MEAN_ELEMENT_THEORY":"SGP4","INCLINATION":"53.2151","ARG_OF_PERICENTER":"55.3009","ECCENTRICITY":"0.00018300","BSTAR":"0.00015066000000","LAUNCH_DATE":"2022-02-21","PERIAPSIS":"538.491","TLE_LINE2":"2 51741  53.2151   7.8389 0001830  55.3009 304.8156 15.08836347 16117","OBJECT_TYPE":"PAYLOAD","COUNTRY_CODE":"US","FILE":"3480894","RA_OF_ASC_NODE":"7.8389","SITE":"AFETR","RCS_SIZE":"LARGE","MEAN_MOTION_DOT":"0.00002110","EPHEMERIS_TYPE":"0","TIME_SYSTEM":"UTC","NORAD_CAT_ID":"51741","ELEMENT_SET_NO":"999","REV_AT_EPOCH":"1611","MEAN_MOTION_DDOT":"0.0000000000000","PERIOD":"95.438","OBJECT_NAME":"STARLINK-3520","MEAN_MOTION":"15.08836347"},{"OBJECT_TYPE":"PAYLOAD","TLE_LINE2":"2 51742  53.2161  10.2825 0001618  62.1819 297.9337 15.08843590 16033","FILE":"3480894","COUNTRY_CODE":"US","RA_OF_ASC_NODE":"10.2825","SITE":"AFETR","RCS_SIZE":"LARGE","MEAN_MOTION_DOT":"-0.00001566","EPHEMERIS_TYPE":"0","TIME_SYSTEM":"UTC","NORAD_CAT_ID":"51742","ELEMENT_SET_NO":"999","REV_AT_EPOCH":"1603","MEAN_MOTION":"15.08843590","PERIOD":"95.437","MEAN_MOTION_DDOT":"0.0000000000000","OBJECT_NAME":"STARLINK-3521","OBJECT_ID":"2022-016AE","CLASSIFICATION_TYPE":"U","MEAN_ANOMALY":"297.9337","APOAPSIS":"540.854","REF_FRAME":"TEME","GP_ID":"205352989","CENTER_NAME":"EARTH","SEMIMAJOR_AXIS":"6917.869","EPOCH":"2022-06-04T00:17:50.386272","DECAY_DATE":null,"TLE_LINE1":"1 51742U 22016AE  22155.01238873 -.00001566  00000-0 -80293-4 0  9993","MEAN_ELEMENT_THEORY":"SGP4","ARG_OF_PERICENTER":"62.1819","INCLINATION":"53.2161","ECCENTRICITY":"0.00016180","BSTAR":"-0.00008029300000","LAUNCH_DATE":"2022-02-21","PERIAPSIS":"538.615"},{"RCS_SIZE":"LARGE","SITE":"AFETR","RA_OF_ASC_NODE":"357.9074","OBJECT_TYPE":"PAYLOAD","TLE_LINE2":"2 51743  53.2166 357.9074 0001106  46.3290 313.7798 15.17198834 17386","FILE":"3481203","COUNTRY_CODE":"US","MEAN_MOTION":"15.17198834","PERIOD":"94.912","MEAN_MOTION_DDOT":"0.0000000000000","OBJECT_NAME":"STARLINK-3512","ELEMENT_SET_NO":"999","REV_AT_EPOCH":"1738","NORAD_CAT_ID":"51743","TIME_SYSTEM":"UTC","MEAN_MOTION_DOT":"-0.00212775","EPHEMERIS_TYPE":"0","GP_ID":"205361450","REF_FRAME":"TEME","APOAPSIS":"515.075","CLASSIFICATION_TYPE":"U","MEAN_ANOMALY":"313.7798","OBJECT_ID":"2022-016AF","PERIAPSIS":"513.551","BSTAR":"-0.01087700000000","LAUNCH_DATE":"2022-02-21","INCLINATION":"53.2166","ARG_OF_PERICENTER":"46.3290","ECCENTRICITY":"0.00011060","MEAN_ELEMENT_THEORY":"SGP4","TLE_LINE1":"1 51743U 22016AF  22155.57993582 -.00212775  00000-0 -10877-1 0  9994","EPOCH":"2022-06-04T13:55:06.454848","DECAY_DATE":null,"CENTER_NAME":"EARTH","SEMIMAJOR_AXIS":"6892.448"},{"NORAD_CAT_ID":"51744","TIME_SYSTEM":"UTC","MEAN_MOTION_DOT":"-0.00000632","EPHEMERIS_TYPE":"0","MEAN_MOTION":"15.08844501","PERIOD":"95.437","MEAN_MOTION_DDOT":"0.0000000000000","OBJECT_NAME":"STARLINK-3452","ELEMENT_SET_NO":"999","REV_AT_EPOCH":"1604","RA_OF_ASC_NODE":"10.0027","OBJECT_TYPE":"PAYLOAD","TLE_LINE2":"2 51744  53.2178  10.0027 0001635  55.9472 304.1675 15.08844501 16049","FILE":"3480894","COUNTRY_CODE":"US","RCS_SIZE":"LARGE","SITE":"AFETR","TLE_LINE1":"1 51744U 22016AG  22155.07221509 -.00000632  00000-0 -21631-4 0  9993","EPOCH":"2022-06-04T01:43:59.383776","DECAY_DATE":null,"CENTER_NAME":"EARTH","SEMIMAJOR_AXIS":"6917.867","PERIAPSIS":"538.601","BSTAR":"-0.00002163100000","LAUNCH_DATE":"2022-02-21","ARG_OF_PERICENTER":"55.9472","INCLINATION":"53.2178","ECCENTRICITY":"0.00016350","MEAN_ELEMENT_THEORY":"SGP4","APOAPSIS":"540.863","CLASSIFICATION_TYPE":"U","MEAN_ANOMALY":"304.1675","OBJECT_ID":"2022-016AG","GP_ID":"205352488","REF_FRAME":"TEME"}];
